[{"OBJECT_NAME":"STARLINK-3607","OBJECT_ID":"2022-017AT","EPOCH":"2026-03-09T21:31:25.452768","MEAN_MOTION":15.08852055,"ECCENTRICITY":0.00015183,"INCLINATION":53.2199,"RA_OF_ASC_NODE":338.1512,"ARG_OF_PERICENTER":55.8956,"MEAN_ANOMALY":304.218,"EPHEMERIS_TYPE":0,"CLASSIFICATION_TYPE":"U","NORAD_CAT_ID":51809,"ELEMENT_SET_NO":999,"REV_AT_EPOCH":22409,"BSTAR":0.00015558195,"MEAN_MOTION_DOT":2.19e-5,"MEAN_MOTION_DDOT":0},{"OBJECT_NAME":"DISKSAT B","OBJECT_ID":"2025-305B","EPOCH":"2026-03-09T19:33:34.074144","MEAN_MOTION":15.07484556,"ECCENTRICITY":0.00037827,"INCLINATION":45.0018,"RA_OF_ASC_NODE":250.2098,"ARG_OF_PERICENTER":311.4052,"MEAN_ANOMALY":48.6498,"EPHEMERIS_TYPE":0,"CLASSIFICATION_TYPE":"U","NORAD_CAT_ID":67220,"ELEMENT_SET_NO":999,"REV_AT_EPOCH":1231,"BSTAR":0.00082400752,"MEAN_MOTION_DOT":0.00012481,"MEAN_MOTION_DDOT":0}]
